{
    "links": {
        "self": "http://www.neowsapp.com/rest/v1/neo/3335049?api_key=iIulBulltgU6a56xZRHN4H3l9WmuAYTsLGpBGhQ2"
    },
    "id": "3335049",
    "neo_reference_id": "3335049",
    "name": "(2006 KN89)",
    "designation": "2006 KN89",
    "nasa_jpl_url": "http://ssd.jpl.nasa.gov/sbdb.cgi?sstr=3335049",
    "absolute_magnitude_h": 21.4,
    "estimated_diameter": {
        "kilometers": {
            "estimated_diameter_min": 0.1394938229,
            "estimated_diameter_max": 0.3119176705
        },
        "meters": {
            "estimated_diameter_min": 139.4938229344,
            "estimated_diameter_max": 311.9176705226
        },
        "miles": {
            "estimated_diameter_min": 0.0866774163,
            "estimated_diameter_max": 0.1938165949
        },
        "feet": {
            "estimated_diameter_min": 457.6569140361,
            "estimated_diameter_max": 1023.3519701574
        }
    },
    "is_potentially_hazardous_asteroid": true,
    "close_approach_data": [
        {
            "close_approach_date": "2006-06-09",
            "close_approach_date_full": "2006-Jun-09 10:18",
            "epoch_date_close_approach": 1149848280000,
            "relative_velocity": {
                "kilometers_per_second": "15.3352436028",
                "kilometers_per_hour": "55206.8769702481",
                "miles_per_hour": "34303.4064152078"
            },
            "miss_distance": {
                "astronomical": "0.1069705539",
                "lunar": "41.6115454671",
                "kilometers": "16002567.016160193",
                "miles": "9943534.0560409434"
            },
            "orbiting_body": "Earth"
        }
    ],
    "orbital_data": {
        "orbit_id": "12",
        "orbit_determination_date": "2017-04-06 09:08:32",
        "first_observation_date": "2006-05-29",
        "last_observation_date": "2006-06-16",
        "data_arc_in_days": 18,
        "observations_used": 41,
        "orbit_uncertainty": "8",
        "minimum_orbit_intersection": ".0247707",
        "jupiter_tisserand_invariant": "3.893",
        "epoch_osculation": "2453887.5",
        "eccentricity": ".531349451973297",
        "semi_major_axis": "1.791791056842436",
        "inclination": "5.818472488880869",
        "ascending_node_longitude": "217.6468421388289",
        "orbital_period": "876.0511696355529",
        "perihelion_distance": ".8397238607385531",
        "perihelion_argument": "108.3164518057896",
        "aphelion_distance": "2.743858252946319",
        "perihelion_time": "2453942.310565959337",
        "mean_anomaly": "337.4764255453595",
        "mean_motion": ".4109349002407747",
        "equinox": "J2000",
        "orbit_class": {
            "orbit_class_type": "APO",
            "orbit_class_description": "Near-Earth asteroid orbits which cross the Earth’s orbit similar to that of 1862 Apollo",
            "orbit_class_range": "a (semi-major axis) > 1.0 AU; q (perihelion) < 1.017 AU"
        }
    },
    "is_sentry_object": false
}